name	description	body_site	sample_type	body_habitat	host_common_name	env_feature	country	region	latitude	longitude	location	site	exposure to pyrethroid insecticide	host_life_stage	phenotype
SRS4060924.SRR8216101	PALasCr1PERRInt18S206	internal organs	Adult internal	internal microbiota	Anopheles albimanus	Insect	Guatemala	V3-V4	14.0833	-91.15	Guatemala: Las Cruces, La Gomera, Escuintla	Las Cruces 1	topical exposure to permethrin	Non-gravid adult female, 2-5 days old	pyrethroid resistant
SRS4060931.SRR8216094	PALasCr1PERRInt19S196	internal organs	Adult internal	internal microbiota	Anopheles albimanus	Insect	Guatemala	V3-V4	14.0833	-91.15	Guatemala: Las Cruces, La Gomera, Escuintla	Las Cruces 1	topical exposure to permethrin	Non-gravid adult female, 2-5 days old	pyrethroid resistant
SRS4060930.SRR8216095	PALasCr1PERRInt20S186	internal organs	Adult internal	internal microbiota	Anopheles albimanus	Insect	Guatemala	V3-V4	14.0833	-91.15	Guatemala: Las Cruces, La Gomera, Escuintla	Las Cruces 1	topical exposure to permethrin	Non-gravid adult female, 2-5 days old	pyrethroid resistant
SRS4060932.SRR8216093	PALasCr1PERSInt21S176	internal organs	Adult internal	internal microbiota	Anopheles albimanus	Insect	Guatemala	V3-V4	14.0833	-91.15	Guatemala: Las Cruces, La Gomera, Escuintla	Las Cruces 1	topical exposure to permethrin	Non-gravid adult female, 2-5 days old	pyrethroid susceptible
SRS4060943.SRR8216082	PALasCr1PERSInt22S166	internal organs	Adult internal	internal microbiota	Anopheles albimanus	Insect	Guatemala	V3-V4	14.0833	-91.15	Guatemala: Las Cruces, La Gomera, Escuintla	Las Cruces 1	topical exposure to permethrin	Non-gravid adult female, 2-5 days old	pyrethroid susceptible
SRS4060942.SRR8216083	PALasCr1PERSInt23S156	internal organs	Adult internal	internal microbiota	Anopheles albimanus	Insect	Guatemala	V3-V4	14.0833	-91.15	Guatemala: Las Cruces, La Gomera, Escuintla	Las Cruces 1	topical exposure to permethrin	Non-gravid adult female, 2-5 days old	pyrethroid susceptible
SRS4060938.SRR8216087	PALasCr1UNXInt24S146	internal organs	Adult internal	internal microbiota	Anopheles albimanus	Insect	Guatemala	V3-V4	14.0833	-91.15	Guatemala: Las Cruces, La Gomera, Escuintla	Las Cruces 1		Non-gravid adult female, 2-5 days old	undetermined
SRS4060937.SRR8216088	PALasCr1UNXInt25S215	internal organs	Adult internal	internal microbiota	Anopheles albimanus	Insect	Guatemala	V3-V4	14.0833	-91.15	Guatemala: Las Cruces, La Gomera, Escuintla	Las Cruces 1		Non-gravid adult female, 2-5 days old	undetermined
SRS4060936.SRR8216089	PALasCr1UNXInt26S205	internal organs	Adult internal	internal microbiota	Anopheles albimanus	Insect	Guatemala	V3-V4	14.0833	-91.15	Guatemala: Las Cruces, La Gomera, Escuintla	Las Cruces 1		Non-gravid adult female, 2-5 days old	undetermined
SRS4060907.SRR8216118	PALasCr3ALPRInt33S214	internal organs	Adult internal	internal microbiota	Anopheles albimanus	Insect	Guatemala	V3-V4	14.0833	-91.15	Guatemala: Las Cruces, La Gomera, Escuintla	Las Cruces 3	topical exposure to alphacypermethrin	Non-gravid adult female, 2-5 days old	pyrethroid resistant
SRS4060904.SRR8216121	PALasCr3ALPRInt34S204	internal organs	Adult internal	internal microbiota	Anopheles albimanus	Insect	Guatemala	V3-V4	14.0833	-91.15	Guatemala: Las Cruces, La Gomera, Escuintla	Las Cruces 3	topical exposure to alphacypermethrin	Non-gravid adult female, 2-5 days old	pyrethroid resistant
SRS4060905.SRR8216120	PALasCr3ALPRInt35S194	internal organs	Adult internal	internal microbiota	Anopheles albimanus	Insect	Guatemala	V3-V4	14.0833	-91.15	Guatemala: Las Cruces, La Gomera, Escuintla	Las Cruces 3	topical exposure to alphacypermethrin	Non-gravid adult female, 2-5 days old	pyrethroid resistant
SRS4060909.SRR8216116	PALasCr3ALPSInt36S184	internal organs	Adult internal	internal microbiota	Anopheles albimanus	Insect	Guatemala	V3-V4	14.0833	-91.15	Guatemala: Las Cruces, La Gomera, Escuintla	Las Cruces 3	topical exposure to alphacypermethrin	Non-gravid adult female, 2-5 days old	pyrethroid susceptible
SRS4060902.SRR8216123	PALasCr3ALPSInt37S174	internal organs	Adult internal	internal microbiota	Anopheles albimanus	Insect	Guatemala	V3-V4	14.0833	-91.15	Guatemala: Las Cruces, La Gomera, Escuintla	Las Cruces 3	topical exposure to alphacypermethrin	Non-gravid adult female, 2-5 days old	pyrethroid susceptible
SRS4060903.SRR8216122	PALasCr3ALPSInt38S164	internal organs	Adult internal	internal microbiota	Anopheles albimanus	Insect	Guatemala	V3-V4	14.0833	-91.15	Guatemala: Las Cruces, La Gomera, Escuintla	Las Cruces 3	topical exposure to alphacypermethrin	Non-gravid adult female, 2-5 days old	pyrethroid susceptible
SRS4060886.SRR8216139	PALasCr3PERRInt27S195	internal organs	Adult internal	internal microbiota	Anopheles albimanus	Insect	Guatemala	V3-V4	14.0833	-91.15	Guatemala: Las Cruces, La Gomera, Escuintla	Las Cruces 3	topical exposure to permethrin	Non-gravid adult female, 2-5 days old	pyrethroid resistant
SRS4060889.SRR8216136	PALasCr3PERRInt28S185	internal organs	Adult internal	internal microbiota	Anopheles albimanus	Insect	Guatemala	V3-V4	14.0833	-91.15	Guatemala: Las Cruces, La Gomera, Escuintla	Las Cruces 3	topical exposure to permethrin	Non-gravid adult female, 2-5 days old	pyrethroid resistant
SRS4060888.SRR8216137	PALasCr3PERRInt29S175	internal organs	Adult internal	internal microbiota	Anopheles albimanus	Insect	Guatemala	V3-V4	14.0833	-91.15	Guatemala: Las Cruces, La Gomera, Escuintla	Las Cruces 3	topical exposure to permethrin	Non-gravid adult female, 2-5 days old	pyrethroid resistant
SRS4060882.SRR8216143	PALasCr3PERSInt30S165	internal organs	Adult internal	internal microbiota	Anopheles albimanus	Insect	Guatemala	V3-V4	14.0833	-91.15	Guatemala: Las Cruces, La Gomera, Escuintla	Las Cruces 3	topical exposure to permethrin	Non-gravid adult female, 2-5 days old	pyrethroid susceptible
SRS4060867.SRR8216158	PALasCr3PERSInt31S155	internal organs	Adult internal	internal microbiota	Anopheles albimanus	Insect	Guatemala	V3-V4	14.0833	-91.15	Guatemala: Las Cruces, La Gomera, Escuintla	Las Cruces 3	topical exposure to permethrin	Non-gravid adult female, 2-5 days old	pyrethroid susceptible
SRS4060869.SRR8216157	PALasCr3PERSInt32S145	internal organs	Adult internal	internal microbiota	Anopheles albimanus	Insect	Guatemala	V3-V4	14.0833	-91.15	Guatemala: Las Cruces, La Gomera, Escuintla	Las Cruces 3	topical exposure to permethrin	Non-gravid adult female, 2-5 days old	pyrethroid susceptible
SRS4060864.SRR8216161	PALasCr3UNXInt39S154	internal organs	Adult internal	internal microbiota	Anopheles albimanus	Insect	Guatemala	V3-V4	14.0833	-91.15	Guatemala: Las Cruces, La Gomera, Escuintla	Las Cruces 3		Non-gravid adult female, 2-5 days old	undetermined
SRS4060866.SRR8216160	PALasCr3UNXInt40S144	internal organs	Adult internal	internal microbiota	Anopheles albimanus	Insect	Guatemala	V3-V4	14.0833	-91.15	Guatemala: Las Cruces, La Gomera, Escuintla	Las Cruces 3		Non-gravid adult female, 2-5 days old	undetermined
SRS4060865.SRR8216159	PALasCr3UNXInt41S213	internal organs	Adult internal	internal microbiota	Anopheles albimanus	Insect	Guatemala	V3-V4	14.0833	-91.15	Guatemala: Las Cruces, La Gomera, Escuintla	Las Cruces 3		Non-gravid adult female, 2-5 days old	undetermined
SRS4060840.SRR8216185	PALasCr4ALPRInt48S143	internal organs	Adult internal	internal microbiota	Anopheles albimanus	Insect	Guatemala	V3-V4	14.0833	-91.15	Guatemala: Las Cruces, La Gomera, Escuintla	Las Cruces 4	topical exposure to alphacypermethrin	Non-gravid adult female, 2-5 days old	pyrethroid resistant
SRS4060839.SRR8216186	PALasCr4ALPRInt49S212	internal organs	Adult internal	internal microbiota	Anopheles albimanus	Insect	Guatemala	V3-V4	14.0833	-91.15	Guatemala: Las Cruces, La Gomera, Escuintla	Las Cruces 4	topical exposure to alphacypermethrin	Non-gravid adult female, 2-5 days old	pyrethroid resistant
SRS4060838.SRR8216187	PALasCr4ALPRInt50S202	internal organs	Adult internal	internal microbiota	Anopheles albimanus	Insect	Guatemala	V3-V4	14.0833	-91.15	Guatemala: Las Cruces, La Gomera, Escuintla	Las Cruces 4	topical exposure to alphacypermethrin	Non-gravid adult female, 2-5 days old	pyrethroid resistant
SRS4060842.SRR8216183	PALasCr4ALPSInt51S192	internal organs	Adult internal	internal microbiota	Anopheles albimanus	Insect	Guatemala	V3-V4	14.0833	-91.15	Guatemala: Las Cruces, La Gomera, Escuintla	Las Cruces 4	topical exposure to alphacypermethrin	Non-gravid adult female, 2-5 days old	pyrethroid susceptible
SRS4060848.SRR8216178	PALasCr4ALPSInt52S182	internal organs	Adult internal	internal microbiota	Anopheles albimanus	Insect	Guatemala	V3-V4	14.0833	-91.15	Guatemala: Las Cruces, La Gomera, Escuintla	Las Cruces 4	topical exposure to alphacypermethrin	Non-gravid adult female, 2-5 days old	pyrethroid susceptible
SRS4060846.SRR8216179	PALasCr4ALPSInt53S172	internal organs	Adult internal	internal microbiota	Anopheles albimanus	Insect	Guatemala	V3-V4	14.0833	-91.15	Guatemala: Las Cruces, La Gomera, Escuintla	Las Cruces 4	topical exposure to alphacypermethrin	Non-gravid adult female, 2-5 days old	pyrethroid susceptible
SRS4060822.SRR8216203	PALasCr4DELRInt54S162	internal organs	Adult internal	internal microbiota	Anopheles albimanus	Insect	Guatemala	V3-V4	14.0833	-91.15	Guatemala: Las Cruces, La Gomera, Escuintla	Las Cruces 4	topical exposure to deltamethrin	Non-gravid adult female, 2-5 days old	pyrethroid resistant
SRS4060819.SRR8216206	PALasCr4DELRInt55S152	internal organs	Adult internal	internal microbiota	Anopheles albimanus	Insect	Guatemala	V3-V4	14.0833	-91.15	Guatemala: Las Cruces, La Gomera, Escuintla	Las Cruces 4	topical exposure to deltamethrin	Non-gravid adult female, 2-5 days old	pyrethroid resistant
SRS4060820.SRR8216205	PALasCr4DELRInt56S142	internal organs	Adult internal	internal microbiota	Anopheles albimanus	Insect	Guatemala	V3-V4	14.0833	-91.15	Guatemala: Las Cruces, La Gomera, Escuintla	Las Cruces 4	topical exposure to deltamethrin	Non-gravid adult female, 2-5 days old	pyrethroid resistant
SRS4060826.SRR8216199	PALasCr4DELSInt57S134	internal organs	Adult internal	internal microbiota	Anopheles albimanus	Insect	Guatemala	V3-V4	14.0833	-91.15	Guatemala: Las Cruces, La Gomera, Escuintla	Las Cruces 4	topical exposure to deltamethrin	Non-gravid adult female, 2-5 days old	pyrethroid susceptible
SRS4060813.SRR8216212	PALasCr4DELSInt58S128	internal organs	Adult internal	internal microbiota	Anopheles albimanus	Insect	Guatemala	V3-V4	14.0833	-91.15	Guatemala: Las Cruces, La Gomera, Escuintla	Las Cruces 4	topical exposure to deltamethrin	Non-gravid adult female, 2-5 days old	pyrethroid susceptible
SRS4060944.SRR8216081	PALasCr4DELSInt59S122	internal organs	Adult internal	internal microbiota	Anopheles albimanus	Insect	Guatemala	V3-V4	14.0833	-91.15	Guatemala: Las Cruces, La Gomera, Escuintla	Las Cruces 4	topical exposure to deltamethrin	Non-gravid adult female, 2-5 days old	pyrethroid susceptible
SRS4060837.SRR8216188	PALasCr4PERRInt42S203	internal organs	Adult internal	internal microbiota	Anopheles albimanus	Insect	Guatemala	V3-V4	14.0833	-91.15	Guatemala: Las Cruces, La Gomera, Escuintla	Las Cruces 4	topical exposure to permethrin	Non-gravid adult female, 2-5 days old	pyrethroid resistant
SRS4060798.SRR8216227	PALasCr4PERRInt43S193	internal organs	Adult internal	internal microbiota	Anopheles albimanus	Insect	Guatemala	V3-V4	14.0833	-91.15	Guatemala: Las Cruces, La Gomera, Escuintla	Las Cruces 4	topical exposure to permethrin	Non-gravid adult female, 2-5 days old	pyrethroid resistant
SRS4060934.SRR8216091	PALasCr4PERRInt44S183	internal organs	Adult internal	internal microbiota	Anopheles albimanus	Insect	Guatemala	V3-V4	14.0833	-91.15	Guatemala: Las Cruces, La Gomera, Escuintla	Las Cruces 4	topical exposure to permethrin	Non-gravid adult female, 2-5 days old	pyrethroid resistant
SRS4060791.SRR8216234	PALasCr4PERSInt45S173	internal organs	Adult internal	internal microbiota	Anopheles albimanus	Insect	Guatemala	V3-V4	14.0833	-91.15	Guatemala: Las Cruces, La Gomera, Escuintla	Las Cruces 4	topical exposure to permethrin	Non-gravid adult female, 2-5 days old	pyrethroid susceptible
SRS4060792.SRR8216233	PALasCr4PERSInt46S163	internal organs	Adult internal	internal microbiota	Anopheles albimanus	Insect	Guatemala	V3-V4	14.0833	-91.15	Guatemala: Las Cruces, La Gomera, Escuintla	Las Cruces 4	topical exposure to permethrin	Non-gravid adult female, 2-5 days old	pyrethroid susceptible
SRS4060794.SRR8216232	PALasCr4PERSInt47S153	internal organs	Adult internal	internal microbiota	Anopheles albimanus	Insect	Guatemala	V3-V4	14.0833	-91.15	Guatemala: Las Cruces, La Gomera, Escuintla	Las Cruces 4	topical exposure to permethrin	Non-gravid adult female, 2-5 days old	pyrethroid susceptible
SRS4060797.SRR8216228	PALasCr4UNXInt60S117	internal organs	Adult internal	internal microbiota	Anopheles albimanus	Insect	Guatemala	V3-V4	14.0833	-91.15	Guatemala: Las Cruces, La Gomera, Escuintla	Las Cruces 4		Non-gravid adult female, 2-5 days old	undetermined
SRS4060799.SRR8216226	PALasCr4UNXInt61S112	internal organs	Adult internal	internal microbiota	Anopheles albimanus	Insect	Guatemala	V3-V4	14.0833	-91.15	Guatemala: Las Cruces, La Gomera, Escuintla	Las Cruces 4		Non-gravid adult female, 2-5 days old	undetermined
SRS4060800.SRR8216225	PALasCr4UNXInt62S107	internal organs	Adult internal	internal microbiota	Anopheles albimanus	Insect	Guatemala	V3-V4	14.0833	-91.15	Guatemala: Las Cruces, La Gomera, Escuintla	Las Cruces 4		Non-gravid adult female, 2-5 days old	undetermined
SRS4060927.SRR8216098	PALasCr1PERRExt18S11	cuticle	Adult cuticle	cuticle surface	Anopheles albimanus	Insect	Guatemala	V3-V4	14.0833	-91.15	Guatemala: Las Cruces, La Gomera, Escuintla	Las Cruces 1	topical exposure to permethrin	Non-gravid adult female, 2-5 days old	pyrethroid resistant
SRS4060926.SRR8216099	PALasCr1PERRExt19S94	cuticle	Adult cuticle	cuticle surface	Anopheles albimanus	Insect	Guatemala	V3-V4	14.0833	-91.15	Guatemala: Las Cruces, La Gomera, Escuintla	Las Cruces 1	topical exposure to permethrin	Non-gravid adult female, 2-5 days old	pyrethroid resistant
SRS4060925.SRR8216100	PALasCr1PERRExt20S82	cuticle	Adult cuticle	cuticle surface	Anopheles albimanus	Insect	Guatemala	V3-V4	14.0833	-91.15	Guatemala: Las Cruces, La Gomera, Escuintla	Las Cruces 1	topical exposure to permethrin	Non-gravid adult female, 2-5 days old	pyrethroid resistant
SRS4060928.SRR8216096	PALasCr1PERSExt21S70	cuticle	Adult cuticle	cuticle surface	Anopheles albimanus	Insect	Guatemala	V3-V4	14.0833	-91.15	Guatemala: Las Cruces, La Gomera, Escuintla	Las Cruces 1	topical exposure to permethrin	Non-gravid adult female, 2-5 days old	pyrethroid susceptible
SRS4060929.SRR8216097	PALasCr1PERSExt22S58	cuticle	Adult cuticle	cuticle surface	Anopheles albimanus	Insect	Guatemala	V3-V4	14.0833	-91.15	Guatemala: Las Cruces, La Gomera, Escuintla	Las Cruces 1	topical exposure to permethrin	Non-gravid adult female, 2-5 days old	pyrethroid susceptible
SRS4060933.SRR8216092	PALasCr1PERSExt23S46	cuticle	Adult cuticle	cuticle surface	Anopheles albimanus	Insect	Guatemala	V3-V4	14.0833	-91.15	Guatemala: Las Cruces, La Gomera, Escuintla	Las Cruces 1	topical exposure to permethrin	Non-gravid adult female, 2-5 days old	pyrethroid susceptible
SRS4060941.SRR8216084	PALasCr1UNXExt24S34	cuticle	Adult cuticle	cuticle surface	Anopheles albimanus	Insect	Guatemala	V3-V4	14.0833	-91.15	Guatemala: Las Cruces, La Gomera, Escuintla	Las Cruces 1		Non-gravid adult female, 2-5 days old	undetermined
SRS4060940.SRR8216085	PALasCr1UNXExt25S22	cuticle	Adult cuticle	cuticle surface	Anopheles albimanus	Insect	Guatemala	V3-V4	14.0833	-91.15	Guatemala: Las Cruces, La Gomera, Escuintla	Las Cruces 1		Non-gravid adult female, 2-5 days old	undetermined
SRS4060939.SRR8216086	PALasCr1UNXExt26S10	cuticle	Adult cuticle	cuticle surface	Anopheles albimanus	Insect	Guatemala	V3-V4	14.0833	-91.15	Guatemala: Las Cruces, La Gomera, Escuintla	Las Cruces 1		Non-gravid adult female, 2-5 days old	undetermined
SRS4060946.SRR8216079	PALasCr3ALPRExt33S21	cuticle	Adult cuticle	cuticle surface	Anopheles albimanus	Insect	Guatemala	V3-V4	14.0833	-91.15	Guatemala: Las Cruces, La Gomera, Escuintla	Las Cruces 3	topical exposure to alphacypermethrin	Non-gravid adult female, 2-5 days old	pyrethroid resistant
SRS4060945.SRR8216080	PALasCr3ALPRExt34S9	cuticle	Adult cuticle	cuticle surface	Anopheles albimanus	Insect	Guatemala	V3-V4	14.0833	-91.15	Guatemala: Las Cruces, La Gomera, Escuintla	Las Cruces 3	topical exposure to alphacypermethrin	Non-gravid adult female, 2-5 days old	pyrethroid resistant
SRS4060906.SRR8216119	PALasCr3ALPRExt35S92	cuticle	Adult cuticle	cuticle surface	Anopheles albimanus	Insect	Guatemala	V3-V4	14.0833	-91.15	Guatemala: Las Cruces, La Gomera, Escuintla	Las Cruces 3	topical exposure to alphacypermethrin	Non-gravid adult female, 2-5 days old	pyrethroid resistant
SRS4060910.SRR8216115	PALasCr3ALPSExt36S80	cuticle	Adult cuticle	cuticle surface	Anopheles albimanus	Insect	Guatemala	V3-V4	14.0833	-91.15	Guatemala: Las Cruces, La Gomera, Escuintla	Las Cruces 3	topical exposure to alphacypermethrin	Non-gravid adult female, 2-5 days old	pyrethroid susceptible
SRS4060911.SRR8216114	PALasCr3ALPSExt37S68	cuticle	Adult cuticle	cuticle surface	Anopheles albimanus	Insect	Guatemala	V3-V4	14.0833	-91.15	Guatemala: Las Cruces, La Gomera, Escuintla	Las Cruces 3	topical exposure to alphacypermethrin	Non-gravid adult female, 2-5 days old	pyrethroid susceptible
SRS4060908.SRR8216117	PALasCr3ALPSExt38S56	cuticle	Adult cuticle	cuticle surface	Anopheles albimanus	Insect	Guatemala	V3-V4	14.0833	-91.15	Guatemala: Las Cruces, La Gomera, Escuintla	Las Cruces 3	topical exposure to alphacypermethrin	Non-gravid adult female, 2-5 days old	pyrethroid susceptible
SRS4060885.SRR8216140	PALasCr3PERRExt27S93	cuticle	Adult cuticle	cuticle surface	Anopheles albimanus	Insect	Guatemala	V3-V4	14.0833	-91.15	Guatemala: Las Cruces, La Gomera, Escuintla	Las Cruces 3	topical exposure to permethrin	Non-gravid adult female, 2-5 days old	pyrethroid resistant
SRS4060884.SRR8216141	PALasCr3PERRExt28S81	cuticle	Adult cuticle	cuticle surface	Anopheles albimanus	Insect	Guatemala	V3-V4	14.0833	-91.15	Guatemala: Las Cruces, La Gomera, Escuintla	Las Cruces 3	topical exposure to permethrin	Non-gravid adult female, 2-5 days old	pyrethroid resistant
SRS4060887.SRR8216138	PALasCr3PERRExt29S69	cuticle	Adult cuticle	cuticle surface	Anopheles albimanus	Insect	Guatemala	V3-V4	14.0833	-91.15	Guatemala: Las Cruces, La Gomera, Escuintla	Las Cruces 3	topical exposure to permethrin	Non-gravid adult female, 2-5 days old	pyrethroid resistant
SRS4060890.SRR8216134	PALasCr3PERSExt30S57	cuticle	Adult cuticle	cuticle surface	Anopheles albimanus	Insect	Guatemala	V3-V4	14.0833	-91.15	Guatemala: Las Cruces, La Gomera, Escuintla	Las Cruces 3	topical exposure to permethrin	Non-gravid adult female, 2-5 days old	pyrethroid susceptible
SRS4060891.SRR8216135	PALasCr3PERSExt31S45	cuticle	Adult cuticle	cuticle surface	Anopheles albimanus	Insect	Guatemala	V3-V4	14.0833	-91.15	Guatemala: Las Cruces, La Gomera, Escuintla	Las Cruces 3	topical exposure to permethrin	Non-gravid adult female, 2-5 days old	pyrethroid susceptible
SRS4060883.SRR8216142	PALasCr3PERSExt32S33	cuticle	Adult cuticle	cuticle surface	Anopheles albimanus	Insect	Guatemala	V3-V4	14.0833	-91.15	Guatemala: Las Cruces, La Gomera, Escuintla	Las Cruces 3	topical exposure to permethrin	Non-gravid adult female, 2-5 days old	pyrethroid susceptible
SRS4060868.SRR8216156	PALasCr3UNXExt39S44	cuticle	Adult cuticle	cuticle surface	Anopheles albimanus	Insect	Guatemala	V3-V4	14.0833	-91.15	Guatemala: Las Cruces, La Gomera, Escuintla	Las Cruces 3		Non-gravid adult female, 2-5 days old	undetermined
SRS4060870.SRR8216155	PALasCr3UNXExt40S32	cuticle	Adult cuticle	cuticle surface	Anopheles albimanus	Insect	Guatemala	V3-V4	14.0833	-91.15	Guatemala: Las Cruces, La Gomera, Escuintla	Las Cruces 3		Non-gravid adult female, 2-5 days old	undetermined
SRS4060863.SRR8216162	PALasCr3UNXExt41S20	cuticle	Adult cuticle	cuticle surface	Anopheles albimanus	Insect	Guatemala	V3-V4	14.0833	-91.15	Guatemala: Las Cruces, La Gomera, Escuintla	Las Cruces 3		Non-gravid adult female, 2-5 days old	undetermined
SRS4060861.SRR8216164	PALasCr4ALPRExt48S31	cuticle	Adult cuticle	cuticle surface	Anopheles albimanus	Insect	Guatemala	V3-V4	14.0833	-91.15	Guatemala: Las Cruces, La Gomera, Escuintla	Las Cruces 4	topical exposure to alphacypermethrin	Non-gravid adult female, 2-5 days old	pyrethroid resistant
SRS4060862.SRR8216163	PALasCr4ALPRExt49S19	cuticle	Adult cuticle	cuticle surface	Anopheles albimanus	Insect	Guatemala	V3-V4	14.0833	-91.15	Guatemala: Las Cruces, La Gomera, Escuintla	Las Cruces 4	topical exposure to alphacypermethrin	Non-gravid adult female, 2-5 days old	pyrethroid resistant
SRS4060841.SRR8216184	PALasCr4ALPRExt50S7	cuticle	Adult cuticle	cuticle surface	Anopheles albimanus	Insect	Guatemala	V3-V4	14.0833	-91.15	Guatemala: Las Cruces, La Gomera, Escuintla	Las Cruces 4	topical exposure to alphacypermethrin	Non-gravid adult female, 2-5 days old	pyrethroid resistant
SRS4060843.SRR8216180	PALasCr4ALPSExt51S90	cuticle	Adult cuticle	cuticle surface	Anopheles albimanus	Insect	Guatemala	V3-V4	14.0833	-91.15	Guatemala: Las Cruces, La Gomera, Escuintla	Las Cruces 4	topical exposure to alphacypermethrin	Non-gravid adult female, 2-5 days old	pyrethroid susceptible
SRS4060844.SRR8216181	PALasCr4ALPSExt52S78	cuticle	Adult cuticle	cuticle surface	Anopheles albimanus	Insect	Guatemala	V3-V4	14.0833	-91.15	Guatemala: Las Cruces, La Gomera, Escuintla	Las Cruces 4	topical exposure to alphacypermethrin	Non-gravid adult female, 2-5 days old	pyrethroid susceptible
SRS4060845.SRR8216182	PALasCr4ALPSExt53S66	cuticle	Adult cuticle	cuticle surface	Anopheles albimanus	Insect	Guatemala	V3-V4	14.0833	-91.15	Guatemala: Las Cruces, La Gomera, Escuintla	Las Cruces 4	topical exposure to alphacypermethrin	Non-gravid adult female, 2-5 days old	pyrethroid susceptible
SRS4060823.SRR8216202	PALasCr4DELRExt54S54	cuticle	Adult cuticle	cuticle surface	Anopheles albimanus	Insect	Guatemala	V3-V4	14.0833	-91.15	Guatemala: Las Cruces, La Gomera, Escuintla	Las Cruces 4	topical exposure to deltamethrin	Non-gravid adult female, 2-5 days old	pyrethroid resistant
SRS4060824.SRR8216201	PALasCr4DELRExt55S42	cuticle	Adult cuticle	cuticle surface	Anopheles albimanus	Insect	Guatemala	V3-V4	14.0833	-91.15	Guatemala: Las Cruces, La Gomera, Escuintla	Las Cruces 4	topical exposure to deltamethrin	Non-gravid adult female, 2-5 days old	pyrethroid resistant
SRS4060821.SRR8216204	PALasCr4DELRExt56S30	cuticle	Adult cuticle	cuticle surface	Anopheles albimanus	Insect	Guatemala	V3-V4	14.0833	-91.15	Guatemala: Las Cruces, La Gomera, Escuintla	Las Cruces 4	topical exposure to deltamethrin	Non-gravid adult female, 2-5 days old	pyrethroid resistant
SRS4060817.SRR8216208	PALasCr4DELSExt57S18	cuticle	Adult cuticle	cuticle surface	Anopheles albimanus	Insect	Guatemala	V3-V4	14.0833	-91.15	Guatemala: Las Cruces, La Gomera, Escuintla	Las Cruces 4	topical exposure to deltamethrin	Non-gravid adult female, 2-5 days old	pyrethroid susceptible
SRS4060818.SRR8216207	PALasCr4DELSExt58S6	cuticle	Adult cuticle	cuticle surface	Anopheles albimanus	Insect	Guatemala	V3-V4	14.0833	-91.15	Guatemala: Las Cruces, La Gomera, Escuintla	Las Cruces 4	topical exposure to deltamethrin	Non-gravid adult female, 2-5 days old	pyrethroid susceptible
SRS4060825.SRR8216200	PALasCr4DELSExt59S89	cuticle	Adult cuticle	cuticle surface	Anopheles albimanus	Insect	Guatemala	V3-V4	14.0833	-91.15	Guatemala: Las Cruces, La Gomera, Escuintla	Las Cruces 4	topical exposure to deltamethrin	Non-gravid adult female, 2-5 days old	pyrethroid susceptible
SRS4060881.SRR8216144	PALasCr4PERRExt42S8	cuticle	Adult cuticle	cuticle surface	Anopheles albimanus	Insect	Guatemala	V3-V4	14.0833	-91.15	Guatemala: Las Cruces, La Gomera, Escuintla	Las Cruces 4	topical exposure to permethrin	Non-gravid adult female, 2-5 days old	pyrethroid resistant
SRS4060947.SRR8216078	PALasCr4PERRExt43S91	cuticle	Adult cuticle	cuticle surface	Anopheles albimanus	Insect	Guatemala	V3-V4	14.0833	-91.15	Guatemala: Las Cruces, La Gomera, Escuintla	Las Cruces 4	topical exposure to permethrin	Non-gravid adult female, 2-5 days old	pyrethroid resistant
SRS4060958.SRR8216067	PALasCr4PERRExt44S79	cuticle	Adult cuticle	cuticle surface	Anopheles albimanus	Insect	Guatemala	V3-V4	14.0833	-91.15	Guatemala: Las Cruces, La Gomera, Escuintla	Las Cruces 4	topical exposure to permethrin	Non-gravid adult female, 2-5 days old	pyrethroid resistant
SRS4060812.SRR8216213	PALasCr4PERSExt45S67	cuticle	Adult cuticle	cuticle surface	Anopheles albimanus	Insect	Guatemala	V3-V4	14.0833	-91.15	Guatemala: Las Cruces, La Gomera, Escuintla	Las Cruces 4	topical exposure to permethrin	Non-gravid adult female, 2-5 days old	pyrethroid susceptible
SRS4060811.SRR8216214	PALasCr4PERSExt46S55	cuticle	Adult cuticle	cuticle surface	Anopheles albimanus	Insect	Guatemala	V3-V4	14.0833	-91.15	Guatemala: Las Cruces, La Gomera, Escuintla	Las Cruces 4	topical exposure to permethrin	Non-gravid adult female, 2-5 days old	pyrethroid susceptible
SRS4060790.SRR8216235	PALasCr4PERSExt47S43	cuticle	Adult cuticle	cuticle surface	Anopheles albimanus	Insect	Guatemala	V3-V4	14.0833	-91.15	Guatemala: Las Cruces, La Gomera, Escuintla	Las Cruces 4	topical exposure to permethrin	Non-gravid adult female, 2-5 days old	pyrethroid susceptible
SRS4060815.SRR8216210	PALasCr4UNXExt60S77	cuticle	Adult cuticle	cuticle surface	Anopheles albimanus	Insect	Guatemala	V3-V4	14.0833	-91.15	Guatemala: Las Cruces, La Gomera, Escuintla	Las Cruces 4		Non-gravid adult female, 2-5 days old	undetermined
SRS4060816.SRR8216209	PALasCr4UNXExt61S65	cuticle	Adult cuticle	cuticle surface	Anopheles albimanus	Insect	Guatemala	V3-V4	14.0833	-91.15	Guatemala: Las Cruces, La Gomera, Escuintla	Las Cruces 4		Non-gravid adult female, 2-5 days old	undetermined
SRS4060796.SRR8216229	PALasCr4UNXExt62S53	cuticle	Adult cuticle	cuticle surface	Anopheles albimanus	Insect	Guatemala	V3-V4	14.0833	-91.15	Guatemala: Las Cruces, La Gomera, Escuintla	Las Cruces 4		Non-gravid adult female, 2-5 days old	undetermined
SRS4060860.SRR8216166	PLELTerrDELRInt100S120	internal organs	Larvae internal	internal microbiota	Anopheles albimanus	Insect	Guatemala	V3-V4	14.0833	-91.15	Guatemala: El Terrero, La Gomera, Escuintla	El Terrero	topical exposure to deltamethrin	Larva, L3-L4 stage	pyrethroid resistant
SRS4060858.SRR8216167	PLELTerrDELRInt98S132	internal organs	Larvae internal	internal microbiota	Anopheles albimanus	Insect	Guatemala	V3-V4	14.0833	-91.15	Guatemala: El Terrero, La Gomera, Escuintla	El Terrero	topical exposure to deltamethrin	Larva, L3-L4 stage	pyrethroid resistant
SRS4060923.SRR8216102	PLELTerrDELRInt99S126	internal organs	Larvae internal	internal microbiota	Anopheles albimanus	Insect	Guatemala	V3-V4	14.0833	-91.15	Guatemala: El Terrero, La Gomera, Escuintla	El Terrero	topical exposure to deltamethrin	Larva, L3-L4 stage	pyrethroid resistant
SRS4060948.SRR8216077	PLELTerrDELSInt101S115	internal organs	Larvae internal	internal microbiota	Anopheles albimanus	Insect	Guatemala	V3-V4	14.0833	-91.15	Guatemala: El Terrero, La Gomera, Escuintla	El Terrero	topical exposure to deltamethrin	Larva, L3-L4 stage	pyrethroid susceptible
SRS4060871.SRR8216154	PLELTerrDELSInt102S110	internal organs	Larvae internal	internal microbiota	Anopheles albimanus	Insect	Guatemala	V3-V4	14.0833	-91.15	Guatemala: El Terrero, La Gomera, Escuintla	El Terrero	topical exposure to deltamethrin	Larva, L3-L4 stage	pyrethroid susceptible
SRS4060872.SRR8216153	PLELTerrDELSInt103S105	internal organs	Larvae internal	internal microbiota	Anopheles albimanus	Insect	Guatemala	V3-V4	14.0833	-91.15	Guatemala: El Terrero, La Gomera, Escuintla	El Terrero	topical exposure to deltamethrin	Larva, L3-L4 stage	pyrethroid susceptible
SRS4060876.SRR8216149	PLELTerrPERRInt92S179	internal organs	Larvae internal	internal microbiota	Anopheles albimanus	Insect	Guatemala	V3-V4	14.0833	-91.15	Guatemala: El Terrero, La Gomera, Escuintla	El Terrero	topical exposure to permethrin	Larva, L3-L4 stage	pyrethroid resistant
SRS4060877.SRR8216148	PLELTerrPERRInt93S169	internal organs	Larvae internal	internal microbiota	Anopheles albimanus	Insect	Guatemala	V3-V4	14.0833	-91.15	Guatemala: El Terrero, La Gomera, Escuintla	El Terrero	topical exposure to permethrin	Larva, L3-L4 stage	pyrethroid resistant
SRS4060878.SRR8216147	PLELTerrPERRInt94S159	internal organs	Larvae internal	internal microbiota	Anopheles albimanus	Insect	Guatemala	V3-V4	14.0833	-91.15	Guatemala: El Terrero, La Gomera, Escuintla	El Terrero	topical exposure to permethrin	Larva, L3-L4 stage	pyrethroid resistant
SRS4060900.SRR8216125	PLELTerrPERSInt95S149	internal organs	Larvae internal	internal microbiota	Anopheles albimanus	Insect	Guatemala	V3-V4	14.0833	-91.15	Guatemala: El Terrero, La Gomera, Escuintla	El Terrero	topical exposure to permethrin	Larva, L3-L4 stage	pyrethroid susceptible
SRS4060899.SRR8216126	PLELTerrPERSInt96S139	internal organs	Larvae internal	internal microbiota	Anopheles albimanus	Insect	Guatemala	V3-V4	14.0833	-91.15	Guatemala: El Terrero, La Gomera, Escuintla	El Terrero	topical exposure to permethrin	Larva, L3-L4 stage	pyrethroid susceptible
SRS4060898.SRR8216127	PLELTerrPERSInt97S138	internal organs	Larvae internal	internal microbiota	Anopheles albimanus	Insect	Guatemala	V3-V4	14.0833	-91.15	Guatemala: El Terrero, La Gomera, Escuintla	El Terrero	topical exposure to permethrin	Larva, L3-L4 stage	pyrethroid susceptible
SRS4060894.SRR8216131	PLELTerrUNXInt104S100	internal organs	Larvae internal	internal microbiota	Anopheles albimanus	Insect	Guatemala	V3-V4	14.0833	-91.15	Guatemala: El Terrero, La Gomera, Escuintla	El Terrero		Larva, L3-L4 stage	undetermined
SRS4060893.SRR8216132	PLELTerrUNXInt105S137	internal organs	Larvae internal	internal microbiota	Anopheles albimanus	Insect	Guatemala	V3-V4	14.0833	-91.15	Guatemala: El Terrero, La Gomera, Escuintla	El Terrero		Larva, L3-L4 stage	undetermined
SRS4060892.SRR8216133	PLELTerrUNXInt106S131	internal organs	Larvae internal	internal microbiota	Anopheles albimanus	Insect	Guatemala	V3-V4	14.0833	-91.15	Guatemala: El Terrero, La Gomera, Escuintla	El Terrero		Larva, L3-L4 stage	undetermined
SRS4060831.SRR8216194	PLLasCr3DELRInt69S111	internal organs	Larvae internal	internal microbiota	Anopheles albimanus	Insect	Guatemala	V3-V4	14.0833	-91.15	Guatemala: Las Cruces, La Gomera, Escuintla	Las Cruces 3	topical exposure to deltamethrin	Larva, L3-L4 stage	pyrethroid resistant
SRS4060832.SRR8216193	PLLasCr3DELRInt70S106	internal organs	Larvae internal	internal microbiota	Anopheles albimanus	Insect	Guatemala	V3-V4	14.0833	-91.15	Guatemala: Las Cruces, La Gomera, Escuintla	Las Cruces 3	topical exposure to deltamethrin	Larva, L3-L4 stage	pyrethroid resistant
SRS4060828.SRR8216197	PLLasCr3DELSInt71S101	internal organs	Larvae internal	internal microbiota	Anopheles albimanus	Insect	Guatemala	V3-V4	14.0833	-91.15	Guatemala: Las Cruces, La Gomera, Escuintla	Las Cruces 3	topical exposure to deltamethrin	Larva, L3-L4 stage	pyrethroid susceptible
SRS4060835.SRR8216190	PLLasCr3DELSInt72S97	internal organs	Larvae internal	internal microbiota	Anopheles albimanus	Insect	Guatemala	V3-V4	14.0833	-91.15	Guatemala: Las Cruces, La Gomera, Escuintla	Las Cruces 3	topical exposure to deltamethrin	Larva, L3-L4 stage	pyrethroid susceptible
SRS4060836.SRR8216189	PLLasCr3DELSInt73S211	internal organs	Larvae internal	internal microbiota	Anopheles albimanus	Insect	Guatemala	V3-V4	14.0833	-91.15	Guatemala: Las Cruces, La Gomera, Escuintla	Las Cruces 3	topical exposure to deltamethrin	Larva, L3-L4 stage	pyrethroid susceptible
SRS4060853.SRR8216171	PLLasCr3PERRInt63S102	internal organs	Larvae internal	internal microbiota	Anopheles albimanus	Insect	Guatemala	V3-V4	14.0833	-91.15	Guatemala: Las Cruces, La Gomera, Escuintla	Las Cruces 3	topical exposure to permethrin	Larva, L3-L4 stage	pyrethroid resistant
SRS4060849.SRR8216176	PLLasCr3PERRInt64S98	internal organs	Larvae internal	internal microbiota	Anopheles albimanus	Insect	Guatemala	V3-V4	14.0833	-91.15	Guatemala: Las Cruces, La Gomera, Escuintla	Las Cruces 3	topical exposure to permethrin	Larva, L3-L4 stage	pyrethroid resistant
SRS4060847.SRR8216177	PLLasCr3PERRInt65S133	internal organs	Larvae internal	internal microbiota	Anopheles albimanus	Insect	Guatemala	V3-V4	14.0833	-91.15	Guatemala: Las Cruces, La Gomera, Escuintla	Las Cruces 3	topical exposure to permethrin	Larva, L3-L4 stage	pyrethroid resistant
SRS4060856.SRR8216169	PLLasCr3PERSInt66S127	internal organs	Larvae internal	internal microbiota	Anopheles albimanus	Insect	Guatemala	V3-V4	14.0833	-91.15	Guatemala: Las Cruces, La Gomera, Escuintla	Las Cruces 3	topical exposure to permethrin	Larva, L3-L4 stage	pyrethroid susceptible
SRS4060786.SRR8216239	PLLasCr3PERSInt67S121	internal organs	Larvae internal	internal microbiota	Anopheles albimanus	Insect	Guatemala	V3-V4	14.0833	-91.15	Guatemala: Las Cruces, La Gomera, Escuintla	Las Cruces 3	topical exposure to permethrin	Larva, L3-L4 stage	pyrethroid susceptible
SRS4060787.SRR8216238	PLLasCr3PERSInt68S116	internal organs	Larvae internal	internal microbiota	Anopheles albimanus	Insect	Guatemala	V3-V4	14.0833	-91.15	Guatemala: Las Cruces, La Gomera, Escuintla	Las Cruces 3	topical exposure to permethrin	Larva, L3-L4 stage	pyrethroid susceptible
SRS4060783.SRR8216242	PLLasCr3UNXInt74S201	internal organs	Larvae internal	internal microbiota	Anopheles albimanus	Insect	Guatemala	V3-V4	14.0833	-91.15	Guatemala: Las Cruces, La Gomera, Escuintla	Las Cruces 3		Larva, L3-L4 stage	undetermined
SRS4060784.SRR8216241	PLLasCr3UNXInt75S191	internal organs	Larvae internal	internal microbiota	Anopheles albimanus	Insect	Guatemala	V3-V4	14.0833	-91.15	Guatemala: Las Cruces, La Gomera, Escuintla	Las Cruces 3		Larva, L3-L4 stage	undetermined
SRS4060785.SRR8216240	PLLasCr3UNXInt76S181	internal organs	Larvae internal	internal microbiota	Anopheles albimanus	Insect	Guatemala	V3-V4	14.0833	-91.15	Guatemala: Las Cruces, La Gomera, Escuintla	Las Cruces 3		Larva, L3-L4 stage	undetermined
SRS4060804.SRR8216222	PLLasCr4DELRInt83S190	internal organs	Larvae internal	internal microbiota	Anopheles albimanus	Insect	Guatemala	V3-V4	14.0833	-91.15	Guatemala: Las Cruces, La Gomera, Escuintla	Las Cruces 4	topical exposure to deltamethrin	Larva, L3-L4 stage	pyrethroid resistant
SRS4060802.SRR8216223	PLLasCr4DELRInt84S180	internal organs	Larvae internal	internal microbiota	Anopheles albimanus	Insect	Guatemala	V3-V4	14.0833	-91.15	Guatemala: Las Cruces, La Gomera, Escuintla	Las Cruces 4	topical exposure to deltamethrin	Larva, L3-L4 stage	pyrethroid resistant
SRS4060801.SRR8216224	PLLasCr4DELRInt85S170	internal organs	Larvae internal	internal microbiota	Anopheles albimanus	Insect	Guatemala	V3-V4	14.0833	-91.15	Guatemala: Las Cruces, La Gomera, Escuintla	Las Cruces 4	topical exposure to deltamethrin	Larva, L3-L4 stage	pyrethroid resistant
SRS4060805.SRR8216220	PLLasCr4DELSInt86S160	internal organs	Larvae internal	internal microbiota	Anopheles albimanus	Insect	Guatemala	V3-V4	14.0833	-91.15	Guatemala: Las Cruces, La Gomera, Escuintla	Las Cruces 4	topical exposure to deltamethrin	Larva, L3-L4 stage	pyrethroid susceptible
SRS4060810.SRR8216215	PLLasCr4DELSInt87S150	internal organs	Larvae internal	internal microbiota	Anopheles albimanus	Insect	Guatemala	V3-V4	14.0833	-91.15	Guatemala: Las Cruces, La Gomera, Escuintla	Las Cruces 4	topical exposure to deltamethrin	Larva, L3-L4 stage	pyrethroid susceptible
SRS4060809.SRR8216216	PLLasCr4DELSInt88S140	internal organs	Larvae internal	internal microbiota	Anopheles albimanus	Insect	Guatemala	V3-V4	14.0833	-91.15	Guatemala: Las Cruces, La Gomera, Escuintla	Las Cruces 4	topical exposure to deltamethrin	Larva, L3-L4 stage	pyrethroid susceptible
SRS4060915.SRR8216110	PLLasCr4PERRInt77S171	internal organs	Larvae internal	internal microbiota	Anopheles albimanus	Insect	Guatemala	V3-V4	14.0833	-91.15	Guatemala: Las Cruces, La Gomera, Escuintla	Las Cruces 4	topical exposure to permethrin	Larva, L3-L4 stage	pyrethroid resistant
SRS4060920.SRR8216105	PLLasCr4PERRInt78S161	internal organs	Larvae internal	internal microbiota	Anopheles albimanus	Insect	Guatemala	V3-V4	14.0833	-91.15	Guatemala: Las Cruces, La Gomera, Escuintla	Las Cruces 4	topical exposure to permethrin	Larva, L3-L4 stage	pyrethroid resistant
SRS4060921.SRR8216104	PLLasCr4PERRInt79S151	internal organs	Larvae internal	internal microbiota	Anopheles albimanus	Insect	Guatemala	V3-V4	14.0833	-91.15	Guatemala: Las Cruces, La Gomera, Escuintla	Las Cruces 4	topical exposure to permethrin	Larva, L3-L4 stage	pyrethroid resistant
SRS4060913.SRR8216112	PLLasCr4PERSInt80S141	internal organs	Larvae internal	internal microbiota	Anopheles albimanus	Insect	Guatemala	V3-V4	14.0833	-91.15	Guatemala: Las Cruces, La Gomera, Escuintla	Las Cruces 4	topical exposure to permethrin	Larva, L3-L4 stage	pyrethroid susceptible
SRS4060951.SRR8216074	PLLasCr4PERSInt81S210	internal organs	Larvae internal	internal microbiota	Anopheles albimanus	Insect	Guatemala	V3-V4	14.0833	-91.15	Guatemala: Las Cruces, La Gomera, Escuintla	Las Cruces 4	topical exposure to permethrin	Larva, L3-L4 stage	pyrethroid susceptible
SRS4060950.SRR8216075	PLLasCr4PERSInt82S200	internal organs	Larvae internal	internal microbiota	Anopheles albimanus	Insect	Guatemala	V3-V4	14.0833	-91.15	Guatemala: Las Cruces, La Gomera, Escuintla	Las Cruces 4	topical exposure to permethrin	Larva, L3-L4 stage	pyrethroid susceptible
SRS4060954.SRR8216071	PLLasCr4UNXInt89S209	internal organs	Larvae internal	internal microbiota	Anopheles albimanus	Insect	Guatemala	V3-V4	14.0833	-91.15	Guatemala: Las Cruces, La Gomera, Escuintla	Las Cruces 4		Larva, L3-L4 stage	undetermined
SRS4060957.SRR8216068	PLLasCr4UNXInt90S199	internal organs	Larvae internal	internal microbiota	Anopheles albimanus	Insect	Guatemala	V3-V4	14.0833	-91.15	Guatemala: Las Cruces, La Gomera, Escuintla	Las Cruces 4		Larva, L3-L4 stage	undetermined
SRS4060956.SRR8216069	PLLasCr4UNXInt91S189	internal organs	Larvae internal	internal microbiota	Anopheles albimanus	Insect	Guatemala	V3-V4	14.0833	-91.15	Guatemala: Las Cruces, La Gomera, Escuintla	Las Cruces 4		Larva, L3-L4 stage	undetermined
SRS4060814.SRR8216211	PLELTerrDELRExt100S130	cuticle	Larvae cuticle	cuticle surface	Anopheles albimanus	Insect	Guatemala	V3-V4	14.0833	-91.15	Guatemala: El Terrero, La Gomera, Escuintla	El Terrero	topical exposure to deltamethrin	Larva, L3-L4 stage	pyrethroid resistant
SRS4060959.SRR8216066	PLELTerrDELRExt98S1	cuticle	Larvae cuticle	cuticle surface	Anopheles albimanus	Insect	Guatemala	V3-V4	14.0833	-91.15	Guatemala: El Terrero, La Gomera, Escuintla	El Terrero	topical exposure to deltamethrin	Larva, L3-L4 stage	pyrethroid resistant
SRS4060859.SRR8216165	PLELTerrDELRExt99S136	cuticle	Larvae cuticle	cuticle surface	Anopheles albimanus	Insect	Guatemala	V3-V4	14.0833	-91.15	Guatemala: El Terrero, La Gomera, Escuintla	El Terrero	topical exposure to deltamethrin	Larva, L3-L4 stage	pyrethroid resistant
SRS4060935.SRR8216090	PLELTerrDELSExt101S124	cuticle	Larvae cuticle	cuticle surface	Anopheles albimanus	Insect	Guatemala	V3-V4	14.0833	-91.15	Guatemala: El Terrero, La Gomera, Escuintla	El Terrero	topical exposure to deltamethrin	Larva, L3-L4 stage	pyrethroid susceptible
SRS4060922.SRR8216103	PLELTerrDELSExt102S118	cuticle	Larvae cuticle	cuticle surface	Anopheles albimanus	Insect	Guatemala	V3-V4	14.0833	-91.15	Guatemala: El Terrero, La Gomera, Escuintla	El Terrero	topical exposure to deltamethrin	Larva, L3-L4 stage	pyrethroid susceptible
SRS4060949.SRR8216076	PLELTerrDELSExt103S113	cuticle	Larvae cuticle	cuticle surface	Anopheles albimanus	Insect	Guatemala	V3-V4	14.0833	-91.15	Guatemala: El Terrero, La Gomera, Escuintla	El Terrero	topical exposure to deltamethrin	Larva, L3-L4 stage	pyrethroid susceptible
SRS4060873.SRR8216152	PLELTerrPERRExt92S73	cuticle	Larvae cuticle	cuticle surface	Anopheles albimanus	Insect	Guatemala	V3-V4	14.0833	-91.15	Guatemala: El Terrero, La Gomera, Escuintla	El Terrero	topical exposure to permethrin	Larva, L3-L4 stage	pyrethroid resistant
SRS4060874.SRR8216151	PLELTerrPERRExt93S61	cuticle	Larvae cuticle	cuticle surface	Anopheles albimanus	Insect	Guatemala	V3-V4	14.0833	-91.15	Guatemala: El Terrero, La Gomera, Escuintla	El Terrero	topical exposure to permethrin	Larva, L3-L4 stage	pyrethroid resistant
SRS4060875.SRR8216150	PLELTerrPERRExt94S49	cuticle	Larvae cuticle	cuticle surface	Anopheles albimanus	Insect	Guatemala	V3-V4	14.0833	-91.15	Guatemala: El Terrero, La Gomera, Escuintla	El Terrero	topical exposure to permethrin	Larva, L3-L4 stage	pyrethroid resistant
SRS4060879.SRR8216146	PLELTerrPERSExt95S37	cuticle	Larvae cuticle	cuticle surface	Anopheles albimanus	Insect	Guatemala	V3-V4	14.0833	-91.15	Guatemala: El Terrero, La Gomera, Escuintla	El Terrero	topical exposure to permethrin	Larva, L3-L4 stage	pyrethroid susceptible
SRS4060880.SRR8216145	PLELTerrPERSExt96S25	cuticle	Larvae cuticle	cuticle surface	Anopheles albimanus	Insect	Guatemala	V3-V4	14.0833	-91.15	Guatemala: El Terrero, La Gomera, Escuintla	El Terrero	topical exposure to permethrin	Larva, L3-L4 stage	pyrethroid susceptible
SRS4060901.SRR8216124	PLELTerrPERSExt97S13	cuticle	Larvae cuticle	cuticle surface	Anopheles albimanus	Insect	Guatemala	V3-V4	14.0833	-91.15	Guatemala: El Terrero, La Gomera, Escuintla	El Terrero	topical exposure to permethrin	Larva, L3-L4 stage	pyrethroid susceptible
SRS4060897.SRR8216128	PLELTerrUNXExt104S108	cuticle	Larvae cuticle	cuticle surface	Anopheles albimanus	Insect	Guatemala	V3-V4	14.0833	-91.15	Guatemala: El Terrero, La Gomera, Escuintla	El Terrero		Larva, L3-L4 stage	undetermined
SRS4060896.SRR8216129	PLELTerrUNXExt105S103	cuticle	Larvae cuticle	cuticle surface	Anopheles albimanus	Insect	Guatemala	V3-V4	14.0833	-91.15	Guatemala: El Terrero, La Gomera, Escuintla	El Terrero		Larva, L3-L4 stage	undetermined
SRS4060895.SRR8216130	PLELTerrUNXExt106S99	cuticle	Larvae cuticle	cuticle surface	Anopheles albimanus	Insect	Guatemala	V3-V4	14.0833	-91.15	Guatemala: El Terrero, La Gomera, Escuintla	El Terrero		Larva, L3-L4 stage	undetermined
SRS4060833.SRR8216192	PLLasCr3DELRExt69S64	cuticle	Larvae cuticle	cuticle surface	Anopheles albimanus	Insect	Guatemala	V3-V4	14.0833	-91.15	Guatemala: Las Cruces, La Gomera, Escuintla	Las Cruces 3	topical exposure to deltamethrin	Larva, L3-L4 stage	pyrethroid resistant
SRS4060834.SRR8216191	PLLasCr3DELRExt70S52	cuticle	Larvae cuticle	cuticle surface	Anopheles albimanus	Insect	Guatemala	V3-V4	14.0833	-91.15	Guatemala: Las Cruces, La Gomera, Escuintla	Las Cruces 3	topical exposure to deltamethrin	Larva, L3-L4 stage	pyrethroid resistant
SRS4060829.SRR8216196	PLLasCr3DELSExt71S40	cuticle	Larvae cuticle	cuticle surface	Anopheles albimanus	Insect	Guatemala	V3-V4	14.0833	-91.15	Guatemala: Las Cruces, La Gomera, Escuintla	Las Cruces 3	topical exposure to deltamethrin	Larva, L3-L4 stage	pyrethroid susceptible
SRS4060830.SRR8216195	PLLasCr3DELSExt72S28	cuticle	Larvae cuticle	cuticle surface	Anopheles albimanus	Insect	Guatemala	V3-V4	14.0833	-91.15	Guatemala: Las Cruces, La Gomera, Escuintla	Las Cruces 3	topical exposure to deltamethrin	Larva, L3-L4 stage	pyrethroid susceptible
SRS4060827.SRR8216198	PLLasCr3DELSExt73S16	cuticle	Larvae cuticle	cuticle surface	Anopheles albimanus	Insect	Guatemala	V3-V4	14.0833	-91.15	Guatemala: Las Cruces, La Gomera, Escuintla	Las Cruces 3	topical exposure to deltamethrin	Larva, L3-L4 stage	pyrethroid susceptible
SRS4060854.SRR8216172	PLLasCr3PERRExt63S41	cuticle	Larvae cuticle	cuticle surface	Anopheles albimanus	Insect	Guatemala	V3-V4	14.0833	-91.15	Guatemala: Las Cruces, La Gomera, Escuintla	Las Cruces 3	topical exposure to permethrin	Larva, L3-L4 stage	pyrethroid resistant
SRS4060852.SRR8216173	PLLasCr3PERRExt64S29	cuticle	Larvae cuticle	cuticle surface	Anopheles albimanus	Insect	Guatemala	V3-V4	14.0833	-91.15	Guatemala: Las Cruces, La Gomera, Escuintla	Las Cruces 3	topical exposure to permethrin	Larva, L3-L4 stage	pyrethroid resistant
SRS4060855.SRR8216170	PLLasCr3PERRExt65S17	cuticle	Larvae cuticle	cuticle surface	Anopheles albimanus	Insect	Guatemala	V3-V4	14.0833	-91.15	Guatemala: Las Cruces, La Gomera, Escuintla	Las Cruces 3	topical exposure to permethrin	Larva, L3-L4 stage	pyrethroid resistant
SRS4060851.SRR8216174	PLLasCr3PERSExt66S5	cuticle	Larvae cuticle	cuticle surface	Anopheles albimanus	Insect	Guatemala	V3-V4	14.0833	-91.15	Guatemala: Las Cruces, La Gomera, Escuintla	Las Cruces 3	topical exposure to permethrin	Larva, L3-L4 stage	pyrethroid susceptible
SRS4060850.SRR8216175	PLLasCr3PERSExt67S88	cuticle	Larvae cuticle	cuticle surface	Anopheles albimanus	Insect	Guatemala	V3-V4	14.0833	-91.15	Guatemala: Las Cruces, La Gomera, Escuintla	Las Cruces 3	topical exposure to permethrin	Larva, L3-L4 stage	pyrethroid susceptible
SRS4060857.SRR8216168	PLLasCr3PERSExt68S76	cuticle	Larvae cuticle	cuticle surface	Anopheles albimanus	Insect	Guatemala	V3-V4	14.0833	-91.15	Guatemala: Las Cruces, La Gomera, Escuintla	Las Cruces 3	topical exposure to permethrin	Larva, L3-L4 stage	pyrethroid susceptible
SRS4060788.SRR8216237	PLLasCr3UNXExt74S4	cuticle	Larvae cuticle	cuticle surface	Anopheles albimanus	Insect	Guatemala	V3-V4	14.0833	-91.15	Guatemala: Las Cruces, La Gomera, Escuintla	Las Cruces 3		Larva, L3-L4 stage	undetermined
SRS4060789.SRR8216236	PLLasCr3UNXExt75S87	cuticle	Larvae cuticle	cuticle surface	Anopheles albimanus	Insect	Guatemala	V3-V4	14.0833	-91.15	Guatemala: Las Cruces, La Gomera, Escuintla	Las Cruces 3		Larva, L3-L4 stage	undetermined
SRS4060960.SRR8216065	PLLasCr3UNXExt76S75	cuticle	Larvae cuticle	cuticle surface	Anopheles albimanus	Insect	Guatemala	V3-V4	14.0833	-91.15	Guatemala: Las Cruces, La Gomera, Escuintla	Las Cruces 3		Larva, L3-L4 stage	undetermined
SRS4060793.SRR8216231	PLLasCr4DELRExt83S86	cuticle	Larvae cuticle	cuticle surface	Anopheles albimanus	Insect	Guatemala	V3-V4	14.0833	-91.15	Guatemala: Las Cruces, La Gomera, Escuintla	Las Cruces 4	topical exposure to deltamethrin	Larva, L3-L4 stage	pyrethroid resistant
SRS4060795.SRR8216230	PLLasCr4DELRExt84S74	cuticle	Larvae cuticle	cuticle surface	Anopheles albimanus	Insect	Guatemala	V3-V4	14.0833	-91.15	Guatemala: Las Cruces, La Gomera, Escuintla	Las Cruces 4	topical exposure to deltamethrin	Larva, L3-L4 stage	pyrethroid resistant
SRS4060803.SRR8216221	PLLasCr4DELRExt85S62	cuticle	Larvae cuticle	cuticle surface	Anopheles albimanus	Insect	Guatemala	V3-V4	14.0833	-91.15	Guatemala: Las Cruces, La Gomera, Escuintla	Las Cruces 4	topical exposure to deltamethrin	Larva, L3-L4 stage	pyrethroid resistant
SRS4060808.SRR8216217	PLLasCr4DELSExt86S50	cuticle	Larvae cuticle	cuticle surface	Anopheles albimanus	Insect	Guatemala	V3-V4	14.0833	-91.15	Guatemala: Las Cruces, La Gomera, Escuintla	Las Cruces 4	topical exposure to deltamethrin	Larva, L3-L4 stage	pyrethroid susceptible
SRS4060807.SRR8216218	PLLasCr4DELSExt87S38	cuticle	Larvae cuticle	cuticle surface	Anopheles albimanus	Insect	Guatemala	V3-V4	14.0833	-91.15	Guatemala: Las Cruces, La Gomera, Escuintla	Las Cruces 4	topical exposure to deltamethrin	Larva, L3-L4 stage	pyrethroid susceptible
SRS4060806.SRR8216219	PLLasCr4DELSExt88S26	cuticle	Larvae cuticle	cuticle surface	Anopheles albimanus	Insect	Guatemala	V3-V4	14.0833	-91.15	Guatemala: Las Cruces, La Gomera, Escuintla	Las Cruces 4	topical exposure to deltamethrin	Larva, L3-L4 stage	pyrethroid susceptible
SRS4060916.SRR8216109	PLLasCr4PERRExt77S63	cuticle	Larvae cuticle	cuticle surface	Anopheles albimanus	Insect	Guatemala	V3-V4	14.0833	-91.15	Guatemala: Las Cruces, La Gomera, Escuintla	Las Cruces 4	topical exposure to permethrin	Larva, L3-L4 stage	pyrethroid resistant
SRS4060917.SRR8216108	PLLasCr4PERRExt78S51	cuticle	Larvae cuticle	cuticle surface	Anopheles albimanus	Insect	Guatemala	V3-V4	14.0833	-91.15	Guatemala: Las Cruces, La Gomera, Escuintla	Las Cruces 4	topical exposure to permethrin	Larva, L3-L4 stage	pyrethroid resistant
SRS4060914.SRR8216111	PLLasCr4PERRExt79S39	cuticle	Larvae cuticle	cuticle surface	Anopheles albimanus	Insect	Guatemala	V3-V4	14.0833	-91.15	Guatemala: Las Cruces, La Gomera, Escuintla	Las Cruces 4	topical exposure to permethrin	Larva, L3-L4 stage	pyrethroid resistant
SRS4060918.SRR8216107	PLLasCr4PERSExt80S27	cuticle	Larvae cuticle	cuticle surface	Anopheles albimanus	Insect	Guatemala	V3-V4	14.0833	-91.15	Guatemala: Las Cruces, La Gomera, Escuintla	Las Cruces 4	topical exposure to permethrin	Larva, L3-L4 stage	pyrethroid susceptible
SRS4060919.SRR8216106	PLLasCr4PERSExt81S15	cuticle	Larvae cuticle	cuticle surface	Anopheles albimanus	Insect	Guatemala	V3-V4	14.0833	-91.15	Guatemala: Las Cruces, La Gomera, Escuintla	Las Cruces 4	topical exposure to permethrin	Larva, L3-L4 stage	pyrethroid susceptible
SRS4060912.SRR8216113	PLLasCr4PERSExt82S3	cuticle	Larvae cuticle	cuticle surface	Anopheles albimanus	Insect	Guatemala	V3-V4	14.0833	-91.15	Guatemala: Las Cruces, La Gomera, Escuintla	Las Cruces 4	topical exposure to permethrin	Larva, L3-L4 stage	pyrethroid susceptible
SRS4060953.SRR8216072	PLLasCr4UNXExt89S14	cuticle	Larvae cuticle	cuticle surface	Anopheles albimanus	Insect	Guatemala	V3-V4	14.0833	-91.15	Guatemala: Las Cruces, La Gomera, Escuintla	Las Cruces 4		Larva, L3-L4 stage	undetermined
SRS4060952.SRR8216073	PLLasCr4UNXExt90S2	cuticle	Larvae cuticle	cuticle surface	Anopheles albimanus	Insect	Guatemala	V3-V4	14.0833	-91.15	Guatemala: Las Cruces, La Gomera, Escuintla	Las Cruces 4		Larva, L3-L4 stage	undetermined
SRS4060955.SRR8216070	PLLasCr4UNXExt91S85	cuticle	Larvae cuticle	cuticle surface	Anopheles albimanus	Insect	Guatemala	V3-V4	14.0833	-91.15	Guatemala: Las Cruces, La Gomera, Escuintla	Las Cruces 4		Larva, L3-L4 stage	undetermined
